QIANFAN-113             
1 68640U 26075E   26200.21633154  .00000111  00000+0  15308-3 0  9991
2 68640  88.9922 317.7273 0002024 108.1291 252.0081 13.51019059 14135
QIANFAN-114             
1 68641U 26075F   26200.29859040  .00000103  00000+0  14139-3 0  9996
2 68641  88.9917 317.7365 0002072 104.8505 255.2876 13.51017829 14136
QIANFAN-115             
1 68642U 26075G   26200.25325917  .00000104  00000+0  14269-3 0  9999
2 68642  88.9917 317.7484 0002231 107.0333 253.1062 13.51014547 14127
QIANFAN-116             
1 68643U 26075H   26200.31498048  .00000104  00000+0  14262-3 0  9996
2 68643  88.9910 317.6999 0002056 114.7875 245.3490 13.51015113 14142
QIANFAN-117             
1 68644U 26075J   26200.30263101  .00000099  00000+0  13525-3 0  9990
2 68644  88.9915 317.7183 0002199 110.8434 249.2953 13.51013041 14145
QIANFAN-118             
1 68645U 26075K   26200.26149131  .00000101  00000+0  13745-3 0  9990
2 68645  88.9919 317.7320 0001976 102.9297 257.2075 13.51014870 14138
QIANFAN-119             
1 68646U 26075L   26200.23683281  .00000099  00000+0  13486-3 0  9995
2 68646  88.9920 317.7301 0002325 111.9633 248.1766 13.51021126 14131
QIANFAN-120             
1 68647U 26075M   26200.24928782  .00000117  00000+0  16234-3 0  9990
2 68647  88.9921 317.7144 0002467 111.6528 248.4886 13.51021671 14147
QIANFAN-121             
1 68648U 26075N   26200.27387113  .00000101  00000+0  13825-3 0  9997
2 68648  88.9919 317.7162 0002051 103.0633 257.0747 13.51013669 14146
QIANFAN-122             
1 68649U 26075P   26200.26575129  .00000087  00000+0  11579-3 0  9990
2 68649  88.9918 317.7148 0002241 112.5985 247.5404 13.51017314 14130
QIANFAN-123             
1 68650U 26075Q   26200.23288045  .00000093  00000+0  12472-3 0  9997
2 68650  88.9914 317.7071 0002384 117.1513 242.9882 13.51015721 14116
QIANFAN-124             
1 68651U 26075R   26200.25752916  .00000097  00000+0  13227-3 0  9996
2 68651  88.9917 317.7144 0002263 114.4355 245.7032 13.51016976 14145
QIANFAN-125             
1 68652U 26075S   26200.26976277  .00000101  00000+0  13716-3 0  9995
2 68652  88.9917 317.7152 0002024 103.6039 256.5338 13.51013897 14147
QIANFAN-126             
1 68653U 26075T   26200.27805416  .00000105  00000+0  14380-3 0  9995
2 68653  88.9921 317.6813 0002398 116.3861 243.7537 13.51018957 14167
QIANFAN-127             
1 69073U 26104A   26199.63062277 -.01890904  00000+0 -29988+1 0  9996
2 69073  88.9914 338.2560 0006139  29.3121 330.8375 13.54007615  9404
QIANFAN-128             
1 69074U 26104B   26199.18002306 -.01942531  00000+0 -33012+1 0  9991
2 69074  88.9887 338.3350 0009643 351.9012   8.1982 13.49707511  9324
