{"fetched_at":"2026-07-19T17:31:13.022Z","source":"https://celestrak.org/NORAD/elements/gp.php?GROUP=qianfan&FORMAT=JSON","constellation":"qianfan","records":[{"OBJECT_NAME":"QIANFAN-113","OBJECT_ID":"2026-075E","EPOCH":"2026-07-19T05:11:31.045056","CLASSIFICATION_TYPE":"U","MEAN_MOTION":13.51019059,"ECCENTRICITY":0.00020243,"INCLINATION":88.9922,"RA_OF_ASC_NODE":317.7273,"ARG_OF_PERICENTER":108.1291,"MEAN_ANOMALY":252.0081,"EPHEMERIS_TYPE":0,"NORAD_CAT_ID":68640,"ELEMENT_SET_NO":999,"REV_AT_EPOCH":1413,"BSTAR":0.00015308046,"MEAN_MOTION_DOT":0.00000111,"MEAN_MOTION_DDOT":0},{"OBJECT_NAME":"QIANFAN-114","OBJECT_ID":"2026-075F","EPOCH":"2026-07-19T07:09:58.210560","CLASSIFICATION_TYPE":"U","MEAN_MOTION":13.51017829,"ECCENTRICITY":0.00020721,"INCLINATION":88.9917,"RA_OF_ASC_NODE":317.7365,"ARG_OF_PERICENTER":104.8505,"MEAN_ANOMALY":255.2876,"EPHEMERIS_TYPE":0,"NORAD_CAT_ID":68641,"ELEMENT_SET_NO":999,"REV_AT_EPOCH":1413,"BSTAR":0.00014139134,"MEAN_MOTION_DOT":0.00000103,"MEAN_MOTION_DDOT":0},{"OBJECT_NAME":"QIANFAN-115","OBJECT_ID":"2026-075G","EPOCH":"2026-07-19T06:04:41.592288","CLASSIFICATION_TYPE":"U","MEAN_MOTION":13.51014547,"ECCENTRICITY":0.00022317,"INCLINATION":88.9917,"RA_OF_ASC_NODE":317.7484,"ARG_OF_PERICENTER":107.0333,"MEAN_ANOMALY":253.1062,"EPHEMERIS_TYPE":0,"NORAD_CAT_ID":68642,"ELEMENT_SET_NO":999,"REV_AT_EPOCH":1412,"BSTAR":0.00014268843,"MEAN_MOTION_DOT":0.00000104,"MEAN_MOTION_DDOT":0},{"OBJECT_NAME":"QIANFAN-116","OBJECT_ID":"2026-075H","EPOCH":"2026-07-19T07:33:34.313472","CLASSIFICATION_TYPE":"U","MEAN_MOTION":13.51015113,"ECCENTRICITY":0.00020564,"INCLINATION":88.991,"RA_OF_ASC_NODE":317.6999,"ARG_OF_PERICENTER":114.7875,"MEAN_ANOMALY":245.349,"EPHEMERIS_TYPE":0,"NORAD_CAT_ID":68643,"ELEMENT_SET_NO":999,"REV_AT_EPOCH":1414,"BSTAR":0.00014261969,"MEAN_MOTION_DOT":0.00000104,"MEAN_MOTION_DDOT":0},{"OBJECT_NAME":"QIANFAN-117","OBJECT_ID":"2026-075J","EPOCH":"2026-07-19T07:15:47.319264","CLASSIFICATION_TYPE":"U","MEAN_MOTION":13.51013041,"ECCENTRICITY":0.00021999,"INCLINATION":88.9915,"RA_OF_ASC_NODE":317.7183,"ARG_OF_PERICENTER":110.8434,"MEAN_ANOMALY":249.2953,"EPHEMERIS_TYPE":0,"NORAD_CAT_ID":68644,"ELEMENT_SET_NO":999,"REV_AT_EPOCH":1414,"BSTAR":0.00013525244,"MEAN_MOTION_DOT":9.9e-7,"MEAN_MOTION_DDOT":0},{"OBJECT_NAME":"QIANFAN-118","OBJECT_ID":"2026-075K","EPOCH":"2026-07-19T06:16:32.849184","CLASSIFICATION_TYPE":"U","MEAN_MOTION":13.5101487,"ECCENTRICITY":0.00019766,"INCLINATION":88.9919,"RA_OF_ASC_NODE":317.732,"ARG_OF_PERICENTER":102.9297,"MEAN_ANOMALY":257.2075,"EPHEMERIS_TYPE":0,"NORAD_CAT_ID":68645,"ELEMENT_SET_NO":999,"REV_AT_EPOCH":1413,"BSTAR":0.00013744897,"MEAN_MOTION_DOT":0.00000101,"MEAN_MOTION_DDOT":0},{"OBJECT_NAME":"QIANFAN-119","OBJECT_ID":"2026-075L","EPOCH":"2026-07-19T05:41:02.354784","CLASSIFICATION_TYPE":"U","MEAN_MOTION":13.51021126,"ECCENTRICITY":0.00023253,"INCLINATION":88.992,"RA_OF_ASC_NODE":317.7301,"ARG_OF_PERICENTER":111.9633,"MEAN_ANOMALY":248.1766,"EPHEMERIS_TYPE":0,"NORAD_CAT_ID":68646,"ELEMENT_SET_NO":999,"REV_AT_EPOCH":1413,"BSTAR":0.0001348586,"MEAN_MOTION_DOT":9.9e-7,"MEAN_MOTION_DDOT":0},{"OBJECT_NAME":"QIANFAN-120","OBJECT_ID":"2026-075M","EPOCH":"2026-07-19T05:58:58.467648","CLASSIFICATION_TYPE":"U","MEAN_MOTION":13.51021671,"ECCENTRICITY":0.0002467,"INCLINATION":88.9921,"RA_OF_ASC_NODE":317.7144,"ARG_OF_PERICENTER":111.6528,"MEAN_ANOMALY":248.4886,"EPHEMERIS_TYPE":0,"NORAD_CAT_ID":68647,"ELEMENT_SET_NO":999,"REV_AT_EPOCH":1414,"BSTAR":0.00016234092,"MEAN_MOTION_DOT":0.00000117,"MEAN_MOTION_DDOT":0},{"OBJECT_NAME":"QIANFAN-121","OBJECT_ID":"2026-075N","EPOCH":"2026-07-19T06:34:22.465632","CLASSIFICATION_TYPE":"U","MEAN_MOTION":13.51013669,"ECCENTRICITY":0.00020514,"INCLINATION":88.9919,"RA_OF_ASC_NODE":317.7162,"ARG_OF_PERICENTER":103.0633,"MEAN_ANOMALY":257.0747,"EPHEMERIS_TYPE":0,"NORAD_CAT_ID":68648,"ELEMENT_SET_NO":999,"REV_AT_EPOCH":1414,"BSTAR":0.00013825155,"MEAN_MOTION_DOT":0.00000101,"MEAN_MOTION_DDOT":0},{"OBJECT_NAME":"QIANFAN-122","OBJECT_ID":"2026-075P","EPOCH":"2026-07-19T06:22:40.911456","CLASSIFICATION_TYPE":"U","MEAN_MOTION":13.51017314,"ECCENTRICITY":0.00022417,"INCLINATION":88.9918,"RA_OF_ASC_NODE":317.7148,"ARG_OF_PERICENTER":112.5985,"MEAN_ANOMALY":247.5404,"EPHEMERIS_TYPE":0,"NORAD_CAT_ID":68649,"ELEMENT_SET_NO":999,"REV_AT_EPOCH":1413,"BSTAR":0.00011579422,"MEAN_MOTION_DOT":8.7e-7,"MEAN_MOTION_DDOT":0},{"OBJECT_NAME":"QIANFAN-123","OBJECT_ID":"2026-075Q","EPOCH":"2026-07-19T05:35:20.870880","CLASSIFICATION_TYPE":"U","MEAN_MOTION":13.51015721,"ECCENTRICITY":0.00023844,"INCLINATION":88.9914,"RA_OF_ASC_NODE":317.7071,"ARG_OF_PERICENTER":117.1513,"MEAN_ANOMALY":242.9882,"EPHEMERIS_TYPE":0,"NORAD_CAT_ID":68650,"ELEMENT_SET_NO":999,"REV_AT_EPOCH":1411,"BSTAR":0.00012471929,"MEAN_MOTION_DOT":9.3e-7,"MEAN_MOTION_DDOT":0},{"OBJECT_NAME":"QIANFAN-124","OBJECT_ID":"2026-075R","EPOCH":"2026-07-19T06:10:50.519424","CLASSIFICATION_TYPE":"U","MEAN_MOTION":13.51016976,"ECCENTRICITY":0.0002263,"INCLINATION":88.9917,"RA_OF_ASC_NODE":317.7144,"ARG_OF_PERICENTER":114.4355,"MEAN_ANOMALY":245.7032,"EPHEMERIS_TYPE":0,"NORAD_CAT_ID":68651,"ELEMENT_SET_NO":999,"REV_AT_EPOCH":1414,"BSTAR":0.00013226556,"MEAN_MOTION_DOT":9.7e-7,"MEAN_MOTION_DDOT":0},{"OBJECT_NAME":"QIANFAN-125","OBJECT_ID":"2026-075S","EPOCH":"2026-07-19T06:28:27.503328","CLASSIFICATION_TYPE":"U","MEAN_MOTION":13.51013897,"ECCENTRICITY":0.00020243,"INCLINATION":88.9917,"RA_OF_ASC_NODE":317.7152,"ARG_OF_PERICENTER":103.6039,"MEAN_ANOMALY":256.5338,"EPHEMERIS_TYPE":0,"NORAD_CAT_ID":68652,"ELEMENT_SET_NO":999,"REV_AT_EPOCH":1414,"BSTAR":0.00013716356,"MEAN_MOTION_DOT":0.00000101,"MEAN_MOTION_DDOT":0},{"OBJECT_NAME":"QIANFAN-126","OBJECT_ID":"2026-075T","EPOCH":"2026-07-19T06:40:23.879424","CLASSIFICATION_TYPE":"U","MEAN_MOTION":13.51018957,"ECCENTRICITY":0.00023982,"INCLINATION":88.9921,"RA_OF_ASC_NODE":317.6813,"ARG_OF_PERICENTER":116.3861,"MEAN_ANOMALY":243.7537,"EPHEMERIS_TYPE":0,"NORAD_CAT_ID":68653,"ELEMENT_SET_NO":999,"REV_AT_EPOCH":1416,"BSTAR":0.00014380163,"MEAN_MOTION_DOT":0.00000105,"MEAN_MOTION_DDOT":0},{"OBJECT_NAME":"QIANFAN-127","OBJECT_ID":"2026-104A","EPOCH":"2026-07-18T15:08:05.807328","CLASSIFICATION_TYPE":"U","MEAN_MOTION":13.54007615,"ECCENTRICITY":0.00061396,"INCLINATION":88.9914,"RA_OF_ASC_NODE":338.256,"ARG_OF_PERICENTER":29.3121,"MEAN_ANOMALY":330.8375,"EPHEMERIS_TYPE":0,"NORAD_CAT_ID":69073,"ELEMENT_SET_NO":999,"REV_AT_EPOCH":940,"BSTAR":-2.9987779,"MEAN_MOTION_DOT":-0.01890904,"MEAN_MOTION_DDOT":0},{"OBJECT_NAME":"QIANFAN-128","OBJECT_ID":"2026-104B","EPOCH":"2026-07-18T04:19:13.992384","CLASSIFICATION_TYPE":"U","MEAN_MOTION":13.49707511,"ECCENTRICITY":0.00096435,"INCLINATION":88.9887,"RA_OF_ASC_NODE":338.335,"ARG_OF_PERICENTER":351.9012,"MEAN_ANOMALY":8.1982,"EPHEMERIS_TYPE":0,"NORAD_CAT_ID":69074,"ELEMENT_SET_NO":999,"REV_AT_EPOCH":932,"BSTAR":-3.3011792,"MEAN_MOTION_DOT":-0.01942531,"MEAN_MOTION_DDOT":0}]}
